STARLINK-30502          
1 57973U 23151K   26068.07659787 -.00003338  00000+0 -11181-3 0  9997
2 57973  43.0036 339.3691 0001924 254.6619 105.4020 15.27576128135670
HYPERFIELD-1A           
1 60562U 24149CY  26068.76488211  .00008569  00000+0  30052-3 0  9998
2 60562  97.3842 149.5066 0003865 313.7844  46.3076 15.29681349 86836
